[{"OBJECT_NAME":"STARLINK-2714","OBJECT_ID":"2021-041BC","EPOCH":"2025-08-26T18:40:34.364064","MEAN_MOTION":15.06397826,"ECCENTRICITY":0.00011903,"INCLINATION":53.0544,"RA_OF_ASC_NODE":266.6093,"ARG_OF_PERICENTER":76.6598,"MEAN_ANOMALY":283.4523,"EPHEMERIS_TYPE":0,"CLASSIFICATION_TYPE":"U","NORAD_CAT_ID":48603,"ELEMENT_SET_NO":999,"REV_AT_EPOCH":23737,"BSTAR":0.00011765366,"MEAN_MOTION_DOT":1.471e-5,"MEAN_MOTION_DDOT":0},{"OBJECT_NAME":"STARLINK-2757","OBJECT_ID":"2021-041BD","EPOCH":"2025-08-26T10:45:33.825024","MEAN_MOTION":15.06393224,"ECCENTRICITY":0.00010725,"INCLINATION":53.0544,"RA_OF_ASC_NODE":298.0923,"ARG_OF_PERICENTER":87.5853,"MEAN_ANOMALY":272.5259,"EPHEMERIS_TYPE":0,"CLASSIFICATION_TYPE":"U","NORAD_CAT_ID":48604,"ELEMENT_SET_NO":999,"REV_AT_EPOCH":23690,"BSTAR":-7.001965e-6,"MEAN_MOTION_DOT":-3.86e-6,"MEAN_MOTION_DDOT":0},{"OBJECT_NAME":"STARLINK-2739","OBJECT_ID":"2021-044B","EPOCH":"2025-08-26T18:49:13.781856","MEAN_MOTION":15.06406167,"ECCENTRICITY":0.00012519,"INCLINATION":53.0531,"RA_OF_ASC_NODE":271.5962,"ARG_OF_PERICENTER":78.4973,"MEAN_ANOMALY":281.6156,"EPHEMERIS_TYPE":0,"CLASSIFICATION_TYPE":"U","NORAD_CAT_ID":48639,"ELEMENT_SET_NO":999,"REV_AT_EPOCH":23440,"BSTAR":0.0006778403,"MEAN_MOTION_DOT":9.831e-5,"MEAN_MOTION_DDOT":0},{"OBJECT_NAME":"STARLINK-2736","OBJECT_ID":"2021-044C","EPOCH":"2025-08-26T09:05:25.524096","MEAN_MOTION":15.06401054,"ECCENTRICITY":0.0001259,"INCLINATION":53.0547,"RA_OF_ASC_NODE":273.6858,"ARG_OF_PERICENTER":82.6784,"MEAN_ANOMALY":277.4348,"EPHEMERIS_TYPE":0,"CLASSIFICATION_TYPE":"U","NORAD_CAT_ID":48640,"ELEMENT_SET_NO":999,"REV_AT_EPOCH":23433,"BSTAR":0.00015326842,"MEAN_MOTION_DOT":2.002e-5,"MEAN_MOTION_DDOT":0},{"OBJECT_NAME":"STARLINK-2754","OBJECT_ID":"2021-044D","EPOCH":"2025-08-26T03:01:07.957056","MEAN_MOTION":15.06400049,"ECCENTRICITY":0.0001245,"INCLINATION":53.0552,"RA_OF_ASC_NODE":279.5399,"ARG_OF_PERICENTER":84.6858,"MEAN_ANOMALY":275.4273,"EPHEMERIS_TYPE":0,"CLASSIFICATION_TYPE":"U","NORAD_CAT_ID":48641,"ELEMENT_SET_NO":999,"REV_AT_EPOCH":23423,"BSTAR":7.2284554e-5,"MEAN_MOTION_DOT":7.95e-6,"MEAN_MOTION_DDOT":0},{"OBJECT_NAME":"STARLINK-2646","OBJECT_ID":"2021-044E","EPOCH":"2025-08-26T19:17:45.134304","MEAN_MOTION":15.0639962,"ECCENTRICITY":0.00010894,"INCLINATION":53.0552,"RA_OF_ASC_NODE":276.505,"ARG_OF_PERICENTER":82.831,"MEAN_ANOMALY":277.2803,"EPHEMERIS_TYPE":0,"CLASSIFICATION_TYPE":"U","NORAD_CAT_ID":48642,"ELEMENT_SET_NO":999,"REV_AT_EPOCH":23433,"BSTAR":6.0367584e-5,"MEAN_MOTION_DOT":6.18e-6,"MEAN_MOTION_DDOT":0},{"OBJECT_NAME":"STARLINK-2704","OBJECT_ID":"2021-044F","EPOCH":"2025-08-26T09:16:38.148960","MEAN_MOTION":15.06407305,"ECCENTRICITY":5.681e-5,"INCLINATION":53.0541,"RA_OF_ASC_NODE":278.3607,"ARG_OF_PERICENTER":82.2939,"MEAN_ANOMALY":277.8115,"EPHEMERIS_TYPE":0,"CLASSIFICATION_TYPE":"U","NORAD_CAT_ID":48643,"ELEMENT_SET_NO":999,"REV_AT_EPOCH":23427,"BSTAR":0.0002904742,"MEAN_MOTION_DOT":4.049e-5,"MEAN_MOTION_DDOT":0},{"OBJECT_NAME":"STARLINK-2695","OBJECT_ID":"2021-044G","EPOCH":"2025-08-26T09:12:40.457376","MEAN_MOTION":15.06403427,"ECCENTRICITY":9.409e-5,"INCLINATION":53.0548,"RA_OF_ASC_NODE":278.381,"ARG_OF_PERICENTER":79.1221,"MEAN_ANOMALY":280.9874,"EPHEMERIS_TYPE":0,"CLASSIFICATION_TYPE":"U","NORAD_CAT_ID":48644,"ELEMENT_SET_NO":999,"REV_AT_EPOCH":23427,"BSTAR":0.0001137828,"MEAN_MOTION_DOT":1.414e-5,"MEAN_MOTION_DDOT":0},{"OBJECT_NAME":"STARLINK-2732","OBJECT_ID":"2021-044J","EPOCH":"2025-08-26T20:10:50.373120","MEAN_MOTION":15.06399561,"ECCENTRICITY":0.00010811,"INCLINATION":53.0543,"RA_OF_ASC_NODE":276.3303,"ARG_OF_PERICENTER":73.6927,"MEAN_ANOMALY":286.4181,"EPHEMERIS_TYPE":0,"CLASSIFICATION_TYPE":"U","NORAD_CAT_ID":48646,"ELEMENT_SET_NO":999,"REV_AT_EPOCH":23434,"BSTAR":0.00010012964,"MEAN_MOTION_DOT":1.21e-5,"MEAN_MOTION_DDOT":0},{"OBJECT_NAME":"STARLINK-2521","OBJECT_ID":"2021-044L","EPOCH":"2025-08-26T09:18:01.231200","MEAN_MOTION":15.06394829,"ECCENTRICITY":9.389e-5,"INCLINATION":53.0545,"RA_OF_ASC_NODE":278.5314,"ARG_OF_PERICENTER":72.1532,"MEAN_ANOMALY":287.9559,"EPHEMERIS_TYPE":0,"CLASSIFICATION_TYPE":"U","NORAD_CAT_ID":48648,"ELEMENT_SET_NO":999,"REV_AT_EPOCH":23427,"BSTAR":0.00011311866,"MEAN_MOTION_DOT":1.404e-5,"MEAN_MOTION_DDOT":0},{"OBJECT_NAME":"STARLINK-2673","OBJECT_ID":"2021-044M","EPOCH":"2025-08-26T20:00:14.356800","MEAN_MOTION":15.06397251,"ECCENTRICITY":0.00010588,"INCLINATION":53.055,"RA_OF_ASC_NODE":276.3639,"ARG_OF_PERICENTER":85.864,"MEAN_ANOMALY":274.247,"EPHEMERIS_TYPE":0,"CLASSIFICATION_TYPE":"U","NORAD_CAT_ID":48649,"ELEMENT_SET_NO":999,"REV_AT_EPOCH":23433,"BSTAR":0.00014691075,"MEAN_MOTION_DOT":1.907e-5,"MEAN_MOTION_DDOT":0},{"OBJECT_NAME":"STARLINK-2672","OBJECT_ID":"2021-044N","EPOCH":"2025-08-26T10:21:42.092352","MEAN_MOTION":15.06370972,"ECCENTRICITY":9.613e-5,"INCLINATION":53.0546,"RA_OF_ASC_NODE":278.1655,"ARG_OF_PERICENTER":92.624,"MEAN_ANOMALY":267.4859,"EPHEMERIS_TYPE":0,"CLASSIFICATION_TYPE":"U","NORAD_CAT_ID":48650,"ELEMENT_SET_NO":999,"REV_AT_EPOCH":23427,"BSTAR":0.00021148135,"MEAN_MOTION_DOT":2.868e-5,"MEAN_MOTION_DDOT":0},{"OBJECT_NAME":"STARLINK-2731","OBJECT_ID":"2021-044P","EPOCH":"2025-08-26T19:49:36.393888","MEAN_MOTION":15.06399956,"ECCENTRICITY":0.00012805,"INCLINATION":53.0546,"RA_OF_ASC_NODE":276.3951,"ARG_OF_PERICENTER":91.8803,"MEAN_ANOMALY":268.2332,"EPHEMERIS_TYPE":0,"CLASSIFICATION_TYPE":"U","NORAD_CAT_ID":48651,"ELEMENT_SET_NO":999,"REV_AT_EPOCH":23433,"BSTAR":0.00015796416,"MEAN_MOTION_DOT":2.072e-5,"MEAN_MOTION_DDOT":0},{"OBJECT_NAME":"STARLINK-2727","OBJECT_ID":"2021-044Q","EPOCH":"2025-08-26T19:44:17.928672","MEAN_MOTION":15.06395992,"ECCENTRICITY":0.00011234,"INCLINATION":53.0549,"RA_OF_ASC_NODE":276.414,"ARG_OF_PERICENTER":88.9607,"MEAN_ANOMALY":271.1511,"EPHEMERIS_TYPE":0,"CLASSIFICATION_TYPE":"U","NORAD_CAT_ID":48652,"ELEMENT_SET_NO":999,"REV_AT_EPOCH":23433,"BSTAR":6.9272978e-5,"MEAN_MOTION_DOT":7.51e-6,"MEAN_MOTION_DDOT":0},{"OBJECT_NAME":"STARLINK-2720","OBJECT_ID":"2021-044R","EPOCH":"2025-08-26T19:38:56.985504","MEAN_MOTION":15.06407103,"ECCENTRICITY":0.00016452,"INCLINATION":53.0541,"RA_OF_ASC_NODE":276.4303,"ARG_OF_PERICENTER":140.7537,"MEAN_ANOMALY":219.3572,"EPHEMERIS_TYPE":0,"CLASSIFICATION_TYPE":"U","NORAD_CAT_ID":48653,"ELEMENT_SET_NO":999,"REV_AT_EPOCH":23433,"BSTAR":-0.00089976331,"MEAN_MOTION_DOT":-0.00013661,"MEAN_MOTION_DDOT":0},{"OBJECT_NAME":"STARLINK-2651","OBJECT_ID":"2021-044S","EPOCH":"2025-08-26T19:33:41.287680","MEAN_MOTION":15.06397301,"ECCENTRICITY":0.00010655,"INCLINATION":53.0541,"RA_OF_ASC_NODE":276.4488,"ARG_OF_PERICENTER":73.7609,"MEAN_ANOMALY":286.3497,"EPHEMERIS_TYPE":0,"CLASSIFICATION_TYPE":"U","NORAD_CAT_ID":48654,"ELEMENT_SET_NO":999,"REV_AT_EPOCH":23433,"BSTAR":0.00012898315,"MEAN_MOTION_DOT":1.64e-5,"MEAN_MOTION_DDOT":0}]
