STARLINK-2714           
1 48603U 21041BC  25238.77817551  .00001471  00000+0  11765-3 0  9995
2 48603  53.0544 266.6093 0001190  76.6598 283.4523 15.06397826237374
STARLINK-2757           
1 48604U 21041BD  25238.44830816 -.00000386  00000+0 -70020-5 0  9996
2 48604  53.0544 298.0923 0001072  87.5853 272.5259 15.06393224236901
STARLINK-2739           
1 48639U 21044B   25238.78418729  .00009831  00000+0  67784-3 0  9992
2 48639  53.0531 271.5962 0001251  78.4973 281.6156 15.06406167234406
STARLINK-2736           
1 48640U 21044C   25238.37876764  .00002002  00000+0  15327-3 0  9995
2 48640  53.0547 273.6858 0001259  82.6784 277.4348 15.06401054234335
STARLINK-2754           
1 48641U 21044D   25238.12578654  .00000795  00000+0  72285-4 0  9990
2 48641  53.0552 279.5399 0001245  84.6858 275.4273 15.06400049234233
STARLINK-2646           
1 48642U 21044E   25238.80399461  .00000618  00000+0  60368-4 0  9996
2 48642  53.0552 276.5050 0001089  82.8310 277.2803 15.06399620234336
STARLINK-2704           
1 48643U 21044F   25238.38655265  .00004049  00000+0  29047-3 0  9997
2 48643  53.0541 278.3607 0000568  82.2939 277.8115 15.06407305234270
STARLINK-2695           
1 48644U 21044G   25238.38380159  .00001414  00000+0  11378-3 0  9996
2 48644  53.0548 278.3810 0000940  79.1221 280.9874 15.06403427234275
STARLINK-2732           
1 48646U 21044J   25238.84086080  .00001210  00000+0  10013-3 0  9994
2 48646  53.0543 276.3303 0001081  73.6927 286.4181 15.06399561234349
STARLINK-2521           
1 48648U 21044L   25238.38751425  .00001404  00000+0  11312-3 0  9995
2 48648  53.0545 278.5314 0000938  72.1532 287.9559 15.06394829234274
STARLINK-2673           
1 48649U 21044M   25238.83349950  .00001907  00000+0  14691-3 0  9993
2 48649  53.0550 276.3639 0001058  85.8640 274.2470 15.06397251234332
STARLINK-2672           
1 48650U 21044N   25238.43173718  .00002868  00000+0  21148-3 0  9990
2 48650  53.0546 278.1655 0000961  92.6240 267.4859 15.06370972234270
STARLINK-2731           
1 48651U 21044P   25238.82611567  .00002072  00000+0  15796-3 0  9992
2 48651  53.0546 276.3951 0001280  91.8803 268.2332 15.06399956234336
STARLINK-2727           
1 48652U 21044Q   25238.82242973  .00000751  00000+0  69273-4 0  9996
2 48652  53.0549 276.4140 0001123  88.9607 271.1511 15.06395992234334
STARLINK-2720           
1 48653U 21044R   25238.81871511 -.00013661  00000+0 -89976-3 0  9999
2 48653  53.0541 276.4303 0001645 140.7537 219.3572 15.06407103234335
STARLINK-2651           
1 48654U 21044S   25238.81506120  .00001640  00000+0  12898-3 0  9992
2 48654  53.0541 276.4488 0001065  73.7609 286.3497 15.06397301234339
